NORAD_CAT_ID,OBJECT_NAME,OBJECT_TYPE,EPOCH,MEAN_MOTION,ECCENTRICITY,INCLINATION,RA_OF_ASC_NODE,ARG_OF_PERICENTER,MEAN_ANOMALY,BSTAR,MEAN_MOTION_DOT,MEAN_MOTION_DDOT,TLE_LINE0,TLE_LINE1,TLE_LINE2,SEMIMAJOR_AXIS,PERIOD,APOGEE,PERIGEE,DECAYED
52624.0,STARLINK-4009,PAYLOAD,2024-05-30 20:16:05,15.0886,0.0001503,53.2168,297.39,117.5379,242.5766,0.00039203,5.96e-05,0.0,0 STARLINK-4009,1 52624U 22052AC  24151.84451130  .00005960  00000-0  39203-3 0  9999,2 52624  53.2168 297.3900 0001503 117.5379 242.5766 15.08860000113564,6917.819,95.436,540.724,538.645,0.0
52624.0,STARLINK-4009,PAYLOAD,2024-05-31 13:45:19,15.0886685,0.0001329,53.2166,294.1211,111.1906,248.9228,0.00052763,8.125e-05,0.0,0 STARLINK-4009,1 52624U 22052AC  24152.57314345  .00008125  00000-0  52763-3 0  9998,2 52624  53.2166 294.1211 0001329 111.1906 248.9228 15.08866850113296,6917.798,95.436,540.583,538.744,0.0
52624.0,STARLINK-4009,PAYLOAD,2024-05-31 16:56:05,15.08874131,0.0001218,53.2166,293.5267,70.3904,289.7219,0.00071989,0.00011198,0.0,0 STARLINK-4009,1 52624U 22052AC  24152.70562188  .00011198  00000-0  71989-3 0  9998,2 52624  53.2166 293.5267 0001218  70.3904 289.7219 15.08874131113318,6917.776,95.435,540.484,538.798,0.0
52624.0,STARLINK-4009,PAYLOAD,2024-06-01 02:28:24,15.0885676,0.0001738,53.2164,291.7403,83.5832,276.5358,0.00014024,1.946e-05,0.0,0 STARLINK-4009,1 52624U 22052AC  24153.10306206  .00001946  00000-0  14024-3 0  9997,2 52624  53.2164 291.7403 0001738  83.5832 276.5358 15.08856760113755,6917.829,95.436,540.896,538.492,0.0
52624.0,STARLINK-4009,PAYLOAD,2024-06-01 08:49:57,15.08848343,0.0001455,53.2148,290.5527,80.3383,279.7773,-9.6959e-05,-1.831e-05,0.0,0 STARLINK-4009,1 52624U 22052AC  24153.36802156 -.00001831  00000-0 -96959-4 0  9993,2 52624  53.2148 290.5527 0001455  80.3383 279.7773 15.08848343113791,6917.855,95.437,540.726,538.713,0.0
52624.0,STARLINK-4009,PAYLOAD,2024-06-01 15:11:29,15.08845748,0.0001243,53.2157,289.3639,78.1909,281.9223,-7.3443e-05,-1.457e-05,0.0,0 STARLINK-4009,1 52624U 22052AC  24153.63298221 -.00001457  00000-0 -73443-4 0  9992,2 52624  53.2157 289.3639 0001243  78.1909 281.9223 15.08845748113459,6917.863,95.437,540.588,538.868,0.0
52624.0,STARLINK-4009,PAYLOAD,2024-06-02 08:40:44,15.08840389,0.0001366,53.2165,286.0941,79.1712,280.9434,3.0051e-05,1.9e-06,0.0,0 STARLINK-4009,1 52624U 22052AC  24154.36162471  .00000190  00000-0  30051-4 0  9999,2 52624  53.2165 286.0941 0001366  79.1712 280.9434 15.08840389113940,6917.879,95.438,540.689,538.799,0.0
52624.0,STARLINK-4009,PAYLOAD,2024-06-02 15:02:17,15.0883896,0.0001423,53.2167,284.9046,78.9884,281.1269,7.5743e-05,9.18e-06,0.0,0 STARLINK-4009,1 52624U 22052AC  24154.62658631  .00000918  00000-0  75743-4 0  9991,2 52624  53.2167 284.9046 0001423  78.9884 281.1269 15.08838960113600,6917.884,95.438,540.733,538.764,0.0
52624.0,STARLINK-4009,PAYLOAD,2024-06-03 11:42:17,15.08844612,0.0001399,53.2173,281.0379,85.1065,275.0086,0.00029383,4.392e-05,0.0,0 STARLINK-4009,1 52624U 22052AC  24155.48770743  .00004392  00000-0  29383-3 0  9993,2 52624  53.2173 281.0379 0001399  85.1065 275.0086 15.08844612114114,6917.866,95.437,540.699,538.763,0.0
52624.0,STARLINK-4009,PAYLOAD,2024-06-03 14:53:04,15.08848732,0.0001329,53.2161,280.4417,93.0016,267.1128,0.00036636,5.549e-05,0.0,0 STARLINK-4009,1 52624U 22052AC  24155.62018536  .00005549  00000-0  36636-3 0  9998,2 52624  53.2161 280.4417 0001329  93.0016 267.1128 15.08848732113759,6917.854,95.437,540.638,538.799,0.0
52624.0,STARLINK-4009,PAYLOAD,2024-06-03 18:03:50,15.08852599,0.00014,53.2162,279.8462,93.8,266.3152,0.00039554,6.015e-05,0.0,0 STARLINK-4009,1 52624U 22052AC  24155.75266359  .00006015  00000-0  39554-3 0  9991,2 52624  53.2162 279.8462 0001400  93.8000 266.3152 15.08852599113779,6917.842,95.437,540.675,538.738,0.0
52624.0,STARLINK-4009,PAYLOAD,2024-06-04 11:33:04,15.08844925,0.0001501,53.2128,276.5727,104.5241,255.5917,0.00038663,5.871e-05,0.0,0 STARLINK-4009,1 52624U 22052AC  24156.48130612  .00005871  00000-0  38663-3 0  9993,2 52624  53.2128 276.5727 0001501 104.5241 255.5917 15.08844925114266,6917.865,95.437,540.769,538.692,0.0
52624.0,STARLINK-4009,PAYLOAD,2024-06-04 14:43:50,15.08853139,0.0001569,53.2128,275.9785,94.3449,265.7723,0.00034336,5.183e-05,0.0,0 STARLINK-4009,1 52624U 22052AC  24156.61378135  .00005183  00000-0  34336-3 0  9991,2 52624  53.2128 275.9785 0001569  94.3449 265.7723 15.08853139113908,6917.84,95.437,540.791,538.62,0.0
52624.0,STARLINK-4009,PAYLOAD,2024-06-05 11:23:53,15.08821086,0.0001543,53.2157,272.1151,113.3401,246.7754,-0.000176,-3.086e-05,0.0,0 STARLINK-4009,1 52624U 22052AC  24157.47492199 -.00003086  00000-0 -17600-3 0  9990,2 52624  53.2157 272.1151 0001543 113.3401 246.7754 15.08821086114414,6917.938,95.439,540.871,538.736,0.0
52624.0,STARLINK-4009,PAYLOAD,2024-06-05 14:34:39,15.08831911,0.0001236,53.2136,271.5184,95.9009,264.2124,5.9727e-05,6.63e-06,0.0,0 STARLINK-4009,1 52624U 22052AC  24157.60739806  .00000663  00000-0  59727-4 0  9997,2 52624  53.2136 271.5184 0001236  95.9009 264.2124 15.08831911114052,6917.905,95.438,540.625,538.915,0.0
52624.0,STARLINK-4009,PAYLOAD,2024-06-06 11:14:39,15.08846276,0.0001131,53.2167,267.6521,85.1197,274.9924,0.00034788,5.254e-05,0.0,0 STARLINK-4009,1 52624U 22052AC  24158.46851514  .00005254  00000-0  34788-3 0  9993,2 52624  53.2167 267.6521 0001131  85.1197 274.9924 15.08846276114562,6917.861,95.437,540.509,538.944,0.0
52624.0,STARLINK-4009,PAYLOAD,2024-06-06 14:25:25,15.08855739,0.0001284,53.218,267.0649,98.7947,261.319,0.00056013,8.642e-05,0.0,0 STARLINK-4009,1 52624U 22052AC  24158.60099454  .00008642  00000-0  56013-3 0  9995,2 52624  53.2180 267.0649 0001284  98.7947 261.3190 15.08855739114204,6917.832,95.437,540.586,538.809,0.0
52624.0,STARLINK-4009,PAYLOAD,2024-06-07 07:54:40,15.08846966,0.0001289,53.2169,263.7903,91.9765,268.1375,0.00026188,3.883e-05,0.0,0 STARLINK-4009,1 52624U 22052AC  24159.32963643  .00003883  00000-0  26188-3 0  9997,2 52624  53.2169 263.7903 0001289  91.9765 268.1375 15.08846966114690,6917.859,95.437,540.616,538.832,0.0
52624.0,STARLINK-4009,PAYLOAD,2024-06-07 15:51:36,15.08850055,0.0001549,53.2164,262.3029,89.5819,270.535,0.00021703,3.169e-05,0.0,0 STARLINK-4009,1 52624U 22052AC  24159.66083383  .00003169  00000-0  21703-3 0  9993,2 52624  53.2164 262.3029 0001549  89.5819 270.5350 15.08850055114369,6917.85,95.437,540.786,538.643,0.0
52624.0,STARLINK-4009,PAYLOAD,2024-06-08 12:31:34,15.08890644,0.0001397,53.2166,258.4369,101.8246,258.2903,0.00070847,0.00011021,0.0,0 STARLINK-4009,1 52624U 22052AC  24160.52192892  .00011021  00000-0  70847-3 0  9995,2 52624  53.2166 258.4369 0001397 101.8246 258.2903 15.08890644114878,6917.726,95.434,540.557,538.624,0.0
52624.0,STARLINK-4009,PAYLOAD,2024-06-08 15:42:20,15.08904318,0.0001221,53.2167,257.8417,96.9884,263.1247,0.0009545,0.00014962,0.0,0 STARLINK-4009,1 52624U 22052AC  24160.65440023  .00014962  00000-0  95450-3 0  9995,2 52624  53.2167 257.8417 0001221  96.9884 263.1247 15.08904318114896,6917.684,95.433,540.393,538.704,0.0
52624.0,STARLINK-4009,PAYLOAD,2024-06-08 23:39:17,15.08862533,0.0003239,53.2156,256.3555,74.7095,285.4255,0.00026794,3.981e-05,0.0,0 STARLINK-4009,1 52624U 22052AC  24160.98561860  .00003981  00000-0  26794-3 0  9998,2 52624  53.2156 256.3555 0003239  74.7095 285.4255 15.08862533114944,6917.812,95.436,541.917,537.436,0.0
52624.0,STARLINK-4009,PAYLOAD,2024-06-09 12:22:22,15.08847261,0.0001803,53.2157,253.977,72.7777,287.3412,-0.00010383,-1.941e-05,0.0,0 STARLINK-4009,1 52624U 22052AC  24161.51553413 -.00001941  00000-0 -10383-3 0  9996,2 52624  53.2157 253.9770 0001803  72.7777 287.3412 15.08847261115024,6917.858,95.437,540.97,538.476,0.0
52624.0,STARLINK-4009,PAYLOAD,2024-06-09 23:30:04,15.08837365,0.0001582,53.2165,251.8984,66.2262,293.8896,-0.00022233,-3.824e-05,0.0,0 STARLINK-4009,1 52624U 22052AC  24161.97921666 -.00003824  00000-0 -22233-3 0  9994,2 52624  53.2165 251.8984 0001582  66.2262 293.8896 15.08837365115097,6917.888,95.438,540.848,538.659,0.0
52624.0,STARLINK-4009,PAYLOAD,2024-06-10 12:13:09,15.08836545,0.0001445,53.2172,249.517,87.9459,272.1698,-0.00061051,-9.99e-05,0.0,0 STARLINK-4009,1 52624U 22052AC  24162.50914308 -.00009990  00000-0 -61051-3 0  9990,2 52624  53.2172 249.5170 0001445  87.9459 272.1698 15.08836545114797,6917.891,95.438,540.756,538.756,0.0
52624.0,STARLINK-4009,PAYLOAD,2024-06-11 12:03:57,15.08839948,0.000148,53.2165,245.0578,74.9134,285.2022,0.00043289,6.608e-05,0.0,0 STARLINK-4009,1 52624U 22052AC  24163.50275269  .00006608  00000-0  43289-3 0  9991,2 52624  53.2165 245.0578 0001480  74.9134 285.2022 15.08839948114940,6917.881,95.438,540.769,538.722,0.0
52624.0,STARLINK-4009,PAYLOAD,2024-06-12 05:33:12,15.08836081,0.0001584,53.2169,241.7856,77.6056,282.5114,0.00033094,4.982e-05,0.0,0 STARLINK-4009,1 52624U 22052AC  24164.23139979  .00004982  00000-0  33094-3 0  9995,2 52624  53.2169 241.7856 0001584  77.6056 282.5114 15.08836081115054,6917.892,95.438,540.853,538.662,0.0
52624.0,STARLINK-4009,PAYLOAD,2024-06-12 10:19:22,15.08835766,0.0001588,53.216,240.8933,72.9843,287.1323,0.00029125,4.35e-05,0.0,0 STARLINK-4009,1 52624U 22052AC  24164.43012054  .00004350  00000-0  29125-3 0  9990,2 52624  53.2160 240.8933 0001588  72.9843 287.1323 15.08835766115464,6917.893,95.438,540.857,538.66,0.0
52624.0,STARLINK-4009,PAYLOAD,2024-06-13 11:45:32,15.08842663,0.0001463,53.2165,236.1386,78.3932,281.7225,6.9779e-05,8.23e-06,0.0,0 STARLINK-4009,1 52624U 22052AC  24165.48995778  .00000823  00000-0  69779-4 0  9990,2 52624  53.2165 236.1386 0001463  78.3932 281.7225 15.08842663115623,6917.872,95.437,540.749,538.725,0.0
52624.0,STARLINK-4009,PAYLOAD,2024-06-14 13:11:42,15.08842451,0.0001461,53.2161,231.3793,75.9046,284.2108,0.00012662,1.728e-05,0.0,0 STARLINK-4009,1 52624U 22052AC  24166.54979797  .00001728  00000-0  12662-3 0  9994,2 52624  53.2161 231.3793 0001461  75.9046 284.2108 15.08842451115404,6917.873,95.437,540.749,538.727,0.0
